QZS-1R                  
1 49336U 21096A   23270.85194490 -.00000220  00000+0  00000+0 0  9990
2 49336  35.4009  94.5537 0744888 269.7107  83.3647  1.00284312  7056
